NORAD_CAT_ID,OBJECT_NAME,OBJECT_TYPE,EPOCH,MEAN_MOTION,ECCENTRICITY,INCLINATION,RA_OF_ASC_NODE,ARG_OF_PERICENTER,MEAN_ANOMALY,BSTAR,MEAN_MOTION_DOT,MEAN_MOTION_DDOT,TLE_LINE0,TLE_LINE1,TLE_LINE2,SEMIMAJOR_AXIS,PERIOD,APOGEE,PERIGEE,DECAYED
55282.0,STARLINK-5330,PAYLOAD,2023-05-13 06:37:06,14.98343225,0.0003113,69.9989,124.8692,269.4724,90.6078,-0.00018409,-2.29e-05,0.0,0 STARLINK-5330,1 55282U 23010P   23133.27576828 -.00002290  00000-0 -18409-3 0  9995,2 55282  69.9989 124.8692 0003113 269.4724  90.6078 14.98343225 17984,6950.152,96.106,574.181,569.853,0.0
55282.0,STARLINK-5330,PAYLOAD,2023-05-13 09:49:22,14.98332713,0.0003312,69.999,124.5326,268.3963,91.6817,1.269e-05,5.8e-07,0.0,0 STARLINK-5330,1 55282U 23010P   23133.40928931  .00000058  00000-0  12690-4 0  9991,2 55282  69.9990 124.5326 0003312 268.3963  91.6817 14.98332713 18300,6950.185,96.107,574.351,569.748,0.0
55282.0,STARLINK-5330,PAYLOAD,2023-05-13 16:13:55,14.98323457,0.0003433,69.9992,123.8595,268.6815,91.395,0.0001553,1.76e-05,0.0,0 STARLINK-5330,1 55282U 23010P   23133.67633117  .00001760  00000-0  15530-3 0  9995,2 55282  69.9992 123.8595 0003433 268.6815  91.3950 14.98323457 18349,6950.213,96.107,574.464,569.692,0.0
55282.0,STARLINK-5330,PAYLOAD,2023-05-14 08:15:15,14.98328716,0.0003092,69.9994,122.1762,267.3931,92.6875,7.7334e-05,8.3e-06,0.0,0 STARLINK-5330,1 55282U 23010P   23134.34392978  .00000830  00000-0  77334-4 0  9995,2 55282  69.9994 122.1762 0003092 267.3931  92.6875 14.98328716 18146,6950.197,96.107,574.211,569.913,0.0
55282.0,STARLINK-5330,PAYLOAD,2023-05-14 16:15:56,14.98291874,0.0003072,69.9993,121.335,276.0712,84.0097,0.00068669,8.102e-05,0.0,0 STARLINK-5330,1 55282U 23010P   23134.67774142  .00008102  00000-0  68669-3 0  9998,2 55282  69.9993 121.3350 0003072 276.0712  84.0097 14.98291874 18494,6950.311,96.109,574.311,570.041,0.0
55282.0,STARLINK-5330,PAYLOAD,2023-05-15 09:53:24,14.98330532,0.0003234,69.9992,119.4829,269.2123,90.8665,8.4109e-06,7e-08,0.0,0 STARLINK-5330,1 55282U 23010P   23135.41208962  .00000007  00000-0  84109-5 0  9998,2 55282  69.9992 119.4829 0003234 269.2123  90.8665 14.98330532 18303,6950.191,96.107,574.304,569.809,0.0
55282.0,STARLINK-5330,PAYLOAD,2023-05-15 16:17:57,14.98328079,0.0003204,69.9993,118.8096,268.5312,91.548,-2.8844e-05,-4.37e-06,0.0,0 STARLINK-5330,1 55282U 23010P   23135.67913220 -.00000437  00000-0 -28844-4 0  9998,2 55282  69.9993 118.8096 0003204 268.5312  91.5480 14.98328079 18645,6950.199,96.107,574.291,569.837,0.0
55282.0,STARLINK-5330,PAYLOAD,2023-05-16 08:19:17,14.98324797,0.0003261,69.9995,117.1259,268.8505,91.228,8.2844e-05,8.95e-06,0.0,0 STARLINK-5330,1 55282U 23010P   23136.34673154  .00000895  00000-0  82844-4 0  9998,2 55282  69.9995 117.1259 0003261 268.8505  91.2280 14.98324797 18749,6950.209,96.107,574.34,569.808,0.0
55282.0,STARLINK-5330,PAYLOAD,2023-05-16 16:19:58,14.98305289,0.0003059,69.9996,116.2847,281.722,78.3595,0.0004625,5.426e-05,0.0,0 STARLINK-5330,1 55282U 23010P   23136.68053778  .00005426  00000-0  46250-3 0  9994,2 55282  69.9996 116.2847 0003059 281.7220  78.3595 14.98305289 18498,6950.269,96.109,574.26,570.008,0.0
55282.0,STARLINK-5330,PAYLOAD,2023-05-17 01:56:45,14.98332192,0.0003319,69.9994,115.275,269.3715,90.7064,6.1857e-05,6.45e-06,0.0,0 STARLINK-5330,1 55282U 23010P   23137.08108615  .00000645  00000-0  61857-4 0  9999,2 55282  69.9994 115.2750 0003319 269.3715  90.7064 14.98332192 18557,6950.186,96.107,574.358,569.744,0.0
55282.0,STARLINK-5330,PAYLOAD,2023-05-17 21:10:22,14.98328853,0.0003035,70.0009,113.2562,271.653,88.4281,4.9352e-05,4.96e-06,0.0,0 STARLINK-5330,1 55282U 23010P   23137.88220819  .00000496  00000-0  49352-4 0  9998,2 55282  70.0009 113.2562 0003035 271.6530  88.4281 14.98328853 18972,6950.196,96.107,574.171,569.952,0.0
55282.0,STARLINK-5330,PAYLOAD,2023-05-18 01:58:47,14.98324926,0.0003002,70.0007,112.7508,262.1268,97.9551,-1.9098e-05,-3.21e-06,0.0,0 STARLINK-5330,1 55282U 23010P   23138.08249174 -.00000321  00000-0 -19098-4 0  9999,2 55282  70.0007 112.7508 0003002 262.1268  97.9551 14.98324926 18704,6950.209,96.107,574.16,569.987,0.0
55282.0,STARLINK-5330,PAYLOAD,2023-05-18 08:23:19,14.98327592,0.0003143,69.9998,112.0774,265.96,94.12,1.2905e-05,6.1e-07,0.0,0 STARLINK-5330,1 55282U 23010P   23138.34952938  .00000061  00000-0  12905-4 0  9996,2 55282  69.9998 112.0774 0003143 265.9600  94.1200 14.98327592 19045,6950.2,96.107,574.25,569.881,0.0
55282.0,STARLINK-5330,PAYLOAD,2023-05-18 21:12:23,14.98335673,0.0003011,69.9998,110.7305,268.4373,91.6441,-7.6746e-05,-1.009e-05,0.0,0 STARLINK-5330,1 55282U 23010P   23138.88360727 -.00001009  00000-0 -76746-4 0  9992,2 55282  69.9998 110.7305 0003011 268.4373  91.6441 14.98335673 19126,6950.175,96.107,574.133,569.948,0.0
55282.0,STARLINK-5330,PAYLOAD,2023-05-19 03:36:55,14.98334956,0.000308,69.9998,110.0573,267.9561,92.1245,-4.8735e-05,-6.75e-06,0.0,0 STARLINK-5330,1 55282U 23010P   23139.15064590 -.00000675  00000-0 -48735-4 0  9997,2 55282  69.9998 110.0573 0003080 267.9561  92.1245 14.98334956 18866,6950.178,96.107,574.183,569.902,0.0
55282.0,STARLINK-5330,PAYLOAD,2023-05-19 08:25:18,14.98390657,0.0002636,69.9999,109.5523,256.6308,103.4558,-0.00099837,-0.00012003,0.0,0 STARLINK-5330,1 55282U 23010P   23139.35091139 -.00012003  00000-0 -99837-3 0  9994,2 55282  69.9999 109.5523 0002636 256.6308 103.4558 14.98390657 18891,6950.005,96.103,573.702,570.038,0.0
55282.0,STARLINK-5330,PAYLOAD,2023-05-20 05:15:04,14.98329131,0.0003096,69.9999,107.3643,265.6419,94.4387,2.9598e-05,2.6e-06,0.0,0 STARLINK-5330,1 55282U 23010P   23140.21880693  .00000260  00000-0  29598-4 0  9990,2 55282  69.9999 107.3643 0003096 265.6419  94.4387 14.98329131 19028,6950.196,96.107,574.212,569.909,0.0
55282.0,STARLINK-5330,PAYLOAD,2023-05-20 08:27:20,14.98331824,0.0003162,69.9996,107.0269,267.8157,92.264,4.855e-05,4.86e-06,0.0,0 STARLINK-5330,1 55282U 23010P   23140.35232473  .00000486  00000-0  48550-4 0  9991,2 55282  69.9996 107.0269 0003162 267.8157  92.2640 14.98331824 19348,6950.187,96.107,574.25,569.855,0.0
55282.0,STARLINK-5330,PAYLOAD,2023-05-21 03:40:57,14.98337546,0.000312,69.9997,105.0067,266.1244,93.9559,6.7419e-05,7.12e-06,0.0,0 STARLINK-5330,1 55282U 23010P   23141.15343862  .00000712  00000-0  67419-4 0  9992,2 55282  69.9997 105.0067 0003120 266.1244  93.9559 14.98337546 19160,6950.17,96.107,574.203,569.866,0.0
55282.0,STARLINK-5330,PAYLOAD,2023-05-21 06:53:13,14.98338542,0.0003096,69.9998,104.6701,266.6041,93.4764,7.7244e-05,8.29e-06,0.0,0 STARLINK-5330,1 55282U 23010P   23141.28695715  .00000829  00000-0  77244-4 0  9999,2 55282  69.9998 104.6701 0003096 266.6041  93.4764 14.98338542 19488,6950.166,96.106,574.183,569.88,0.0
55282.0,STARLINK-5330,PAYLOAD,2023-05-22 03:42:59,14.98318575,0.0002723,70.0012,102.4832,262.0685,98.0165,-2.0553e-05,-3.38e-06,0.0,0 STARLINK-5330,1 55282U 23010P   23142.15485361 -.00000338  00000-0 -20553-4 0  9998,2 55282  70.0012 102.4832 0002723 262.0685  98.0165 14.98318575 19311,6950.228,96.108,573.986,570.201,0.0
55282.0,STARLINK-5330,PAYLOAD,2023-05-22 06:55:15,14.98317411,0.0003052,70.0005,102.1472,268.4516,91.6294,-5.4546e-05,-7.44e-06,0.0,0 STARLINK-5330,1 55282U 23010P   23142.28837595 -.00000744  00000-0 -54546-4 0  9992,2 55282  70.0005 102.1472 0003052 268.4516  91.6294 14.98317411 19634,6950.232,96.108,574.218,569.976,0.0
55282.0,STARLINK-5330,PAYLOAD,2023-05-22 14:55:55,14.98328024,0.0003138,69.9998,101.304,269.6429,90.4371,-4.6948e-05,-6.53e-06,0.0,0 STARLINK-5330,1 55282U 23010P   23142.62217043 -.00000653  00000-0 -46948-4 0  9996,2 55282  69.9998 101.3040 0003138 269.6429  90.4371 14.98328024 19382,6950.199,96.107,574.245,569.883,0.0
55282.0,STARLINK-5330,PAYLOAD,2023-05-23 06:57:15,14.98336483,0.0003199,69.9999,99.6214,271.2471,88.8321,3.765e-06,-4.8e-07,0.0,0 STARLINK-5330,1 55282U 23010P   23143.28976346 -.00000048  00000-0  37650-5 0  9995,2 55282  69.9999  99.6214 0003199 271.2471  88.8321 14.98336483 19483,6950.173,96.107,574.261,569.814,0.0
55282.0,STARLINK-5330,PAYLOAD,2023-05-23 21:22:28,14.98326542,0.0003167,69.9999,98.1063,271.838,88.2417,0.00011944,1.332e-05,0.0,0 STARLINK-5330,1 55282U 23010P   23143.89060632  .00001332  00000-0  11944-3 0  9996,2 55282  69.9999  98.1063 0003167 271.8380  88.2417 14.98326542 19877,6950.204,96.107,574.27,569.867,0.0
55282.0,STARLINK-5330,PAYLOAD,2023-05-24 00:34:44,14.98326868,0.0003162,70.0,97.7696,271.6375,88.4422,0.00011851,1.321e-05,0.0,0 STARLINK-5330,1 55282U 23010P   23144.02412637  .00001321  00000-0  11851-3 0  9993,2 55282  70.0000  97.7696 0003162 271.6375  88.4422 14.98326868 19595,6950.203,96.107,574.265,569.87,0.0
55282.0,STARLINK-5330,PAYLOAD,2023-05-24 06:59:16,14.98331317,0.00031,69.9999,97.0959,270.8846,89.1957,0.00016111,1.83e-05,0.0,0 STARLINK-5330,1 55282U 23010P   23144.29116252  .00001830  00000-0  16111-3 0  9995,2 55282  69.9999  97.0959 0003100 270.8846  89.1957 14.98331317 19934,6950.189,96.107,574.208,569.899,0.0
55282.0,STARLINK-5330,PAYLOAD,2023-05-25 21:26:30,14.98331991,0.0002861,70.0005,93.0566,271.0084,89.0748,-3.568e-05,-5.19e-06,0.0,0 STARLINK-5330,1 55282U 23010P   23145.89340614 -.00000519  00000-0 -35680-4 0  9991,2 55282  70.0005  93.0566 0002861 271.0084  89.0748 14.98331991 20178,6950.187,96.107,574.04,570.063,0.0
55282.0,STARLINK-5330,PAYLOAD,2023-05-26 03:51:02,14.98331307,0.000287,70.0005,92.3833,270.7958,89.2872,-3.9846e-05,-5.68e-06,0.0,0 STARLINK-5330,1 55282U 23010P   23146.16044633 -.00000568  00000-0 -39846-4 0  9996,2 55282  70.0005  92.3833 0002870 270.7958  89.2872 14.98331307 19914,6950.189,96.107,574.049,570.059,0.0
55282.0,STARLINK-5330,PAYLOAD,2023-05-26 05:27:10,14.98331686,0.0002866,70.0006,92.215,270.8372,89.2458,-3.4668e-05,-5.07e-06,0.0,0 STARLINK-5330,1 55282U 23010P   23146.22720587 -.00000507  00000-0 -34668-4 0  9992,2 55282  70.0006  92.2150 0002866 270.8372  89.2458 14.98331686 20228,6950.188,96.107,574.045,570.061,0.0
